*******************************************************************************
JPL/HORIZONS                 32 Pomona (A854 UA)           2020-Jun-20 07:56:04
Rec #:      32 (+COV) Soln.date: 2020-Feb-22_15:15:17   # obs: 2201 (1864-2019)
 
IAU76/J2000 helio. ecliptic osc. elements (au, days, deg., period=Julian yrs):
 
  EPOCH=  2455008.5 ! 2009-Jun-26.00 (TDB)         Residual RMS= .43797
   EC= .08285936863936699  QR= 2.37266226461134    TP= 2455422.7411534693
   OM= 220.556227741989    W=  339.0268057497305   IN= 5.528730515259901
   A= 2.587021208613725    MA= 261.8800467461357   ADIST= 2.801380152616111
   PER= 4.1611             N= .236866737           ANGMOM= .02757309
   DAN= 2.38475            DDN= 2.78471            L= 199.6721786
   B= -1.9762262           MOID= 1.36997998        TP= 2010-Aug-14.2411534693
 
Asteroid physical parameters (km, seconds, rotational period in hours):
   GM= n.a.                RAD= 40.38              ROTPER= 9.448
   H= 7.6                  G= .150                 B-V= .857
                           ALBEDO= .2564           STYP= S
 
ASTEROID comments: 
1: soln ref.= JPL#106, OCC=0
2: source=ORB
*******************************************************************************
 
 
*******************************************************************************
Ephemeris / WWW_USER Sat Jun 20 07:56:04 2020 Pasadena, USA      / Horizons
*******************************************************************************
Target body name: 32 Pomona (A854 UA)             {source: JPL#106}
Center body name: Solar System Barycenter (0)     {source: DE431}
Center-site name: BODY CENTER
*******************************************************************************
Start time      : A.D. 1969-Jun-28 00:00:00.0000 TDB
Stop  time      : A.D. 2071-May-04 00:00:00.0000 TDB
Step-size       : 7200 minutes
*******************************************************************************
Center geodetic : 0.00000000,0.00000000,0.0000000 {E-lon(deg),Lat(deg),Alt(km)}
Center cylindric: 0.00000000,0.00000000,0.0000000 {E-lon(deg),Dxy(km),Dz(km)}
Center radii    : (undefined)                                                  
Small perturbers: Yes                             {source: SB431-N16}
Output units    : AU-D
Output type     : GEOMETRIC cartesian states
Output format   : 2 (position and velocity)
Reference frame : Ecliptic of J2000.0
*******************************************************************************
Initial IAU76/J2000 heliocentric ecliptic osculating elements (au, days, deg.):
  EPOCH=  2455008.5 ! 2009-Jun-26.00 (TDB)         Residual RMS= .43797        
   EC= .08285936863936699  QR= 2.37266226461134    TP= 2455422.7411534693      
   OM= 220.556227741989    W=  339.0268057497305   IN= 5.528730515259901       
  Equivalent ICRF heliocentric equatorial cartesian coordinates (au, au/d):
   X=-9.665812386065598E-02  Y= 2.487614272755348E+00  Z= 8.614711390996421E-01
  VX=-1.040806498025635E-02 VY=-9.490162228415881E-04 VZ=-1.022991060599268E-03
Asteroid physical parameters (km, seconds, rotational period in hours):        
   GM= n.a.                RAD= 40.38              ROTPER= 9.448               
   H= 7.6                  G= .150                 B-V= .857                   
                           ALBEDO= .2564           STYP= S                     
*******************************************************************************
            JDTDB,            Calendar Date (TDB),        delta-T,                      X,                      Y,                      Z,                     VX,                     VY,                     VZ,
******************************************************************************************************************************************************************************************************************
$$SOE
2449640.500000000, A.D. 1994-Oct-15 00:00:00.0000,      61.182347,  4.104157843146847E-01, -2.482064016734160E+00,  2.087765911299576E-01,  1.086092178094707E-02,  9.309666467264148E-04,  6.177506719208095E-04,
2449645.500000000, A.D. 1994-Oct-20 00:00:00.0000,      61.182377,  4.646226026177802E-01, -2.476843158172505E+00,  2.118175920711025E-01,  1.082101911173808E-02,  1.157096350844599E-03,  5.986206612302006E-04,
2449650.500000000, A.D. 1994-Oct-25 00:00:00.0000,      61.182418,  5.186181698835096E-01, -2.470495934433733E+00,  2.147625166697128E-01,  1.077643315976900E-02,  1.381497428938645E-03,  5.793220026813478E-04,
2449655.500000000, A.D. 1994-Oct-30 00:00:00.0000,      61.182473,  5.723792477338444E-01, -2.463031215511902E+00,  2.176105495932850E-01,  1.072723536120947E-02,  1.604079627975179E-03,  5.598658368172181E-04,
2449660.500000000, A.D. 1994-Nov-04 00:00:00.0000,      61.182540,  6.258829582006585E-01, -2.454458315293440E+00,  2.203609308743870E-01,  1.067349842419510E-02,  1.824755640849768E-03,  5.402631681245620E-04,
2449665.500000000, A.D. 1994-Nov-09 00:00:00.0000,      61.182619,  6.791067897937211E-01, -2.444786976878381E+00,  2.230129552157402E-01,  1.061529621270569E-02,  2.043441085431680E-03,  5.205248592493328E-04,
2449670.500000000, A.D. 1994-Nov-14 00:00:00.0000,      61.182706,  7.320286029975560E-01, -2.434027358015530E+00,  2.255659712674695E-01,  1.055270363427929E-02,  2.260054479912920E-03,  5.006616256592064E-04,
2449675.500000000, A.D. 1994-Nov-19 00:00:00.0000,      61.182802,  7.846266352167466E-01, -2.422190016670493E+00,  2.280193808789618E-01,  1.048579653166780E-02,  2.474517214317830E-03,  4.806840308366109E-04,
2449680.500000000, A.D. 1994-Nov-24 00:00:00.0000,      61.182907,  8.368795051891657E-01, -2.409285896745450E+00,  2.303726383280683E-01,  1.041465157833314E-02,  2.686753518350450E-03,  4.606024820184442E-04,
2449685.500000000, A.D. 1994-Nov-29 00:00:00.0000,      61.183023,  8.887662168861498E-01, -2.395326313968003E+00,  2.326252495302878E-01,  1.033934617772903E-02,  2.896690425982633E-03,  4.404272264404489E-04,
2449690.500000000, A.D. 1994-Dec-04 00:00:00.0000,      61.183147,  9.402661629185923E-01, -2.380322941964490E+00,  2.347767712303482E-01,  1.025995836639210E-02,  3.104257737137838E-03,  4.201683480479809E-04,
2449695.500000000, A.D. 1994-Dec-09 00:00:00.0000,      61.183277,  9.913591274680800E-01, -2.364287798531543E+00,  2.368268101784604E-01,  1.017656672087163E-02,  3.309387976739605E-03,  3.998357646511074E-04,
2449700.500000000, A.D. 1994-Dec-14 00:00:00.0000,      61.183411,  1.042025288762274E+00, -2.347233232118530E+00,  2.387750222934255E-01,  1.008925026849344E-02,  3.512016351358231E-03,  3.794392255067937E-04,
2449705.500000000, A.D. 1994-Dec-19 00:00:00.0000,      61.183549,  1.092245221113617E+00, -2.329171908532260E+00,  2.406211118146679E-01,  9.998088401915744E-03,  3.712080703694132E-03,  3.589883093044415E-04,
2449710.500000000, A.D. 1994-Dec-24 00:00:00.0000,      61.183691,  1.141999896540161E+00, -2.310116797874123E+00,  2.423648304451354E-01,  9.903160797413097E-03,  3.909521465171950E-03,  3.384924225155259E-04,
2449715.500000000, A.D. 1994-Dec-29 00:00:00.0000,      61.183836,  1.191270685987038E+00, -2.290081161718348E+00,  2.440059764867446E-01,  9.804547336844910E-03,  4.104281606951958E-03,  3.179607980578124E-04,
2449720.500000000, A.D. 1995-Jan-03 00:00:00.0000,      61.183984,  1.240039360167054E+00, -2.269078540538543E+00,  2.455443939698602E-01,  9.702328033353663E-03,  4.296306589641911E-03,  2.974024942402739E-04,
2449725.500000000, A.D. 1995-Jan-08 00:00:00.0000,      61.184131,  1.288288090039295E+00, -2.247122741388553E+00,  2.469799717782062E-01,  9.596582960886810E-03,  4.485544311878456E-03,  2.768263939965744E-04,
2449730.500000000, A.D. 1995-Jan-13 00:00:00.0000,      61.184276,  1.335999446945062E+00, -2.224227825843206E+00,  2.483126427707823E-01,  9.487392187604287E-03,  4.671945057777366E-03,  2.562412044638950E-04,
2449735.500000000, A.D. 1995-Jan-18 00:00:00.0000,      61.184418,  1.383156402420405E+00, -2.200408098204690E+00,  2.495423829026220E-01,  9.374835713089670E-03,  4.855461443232920E-03,  2.356554569462010E-04,
2449740.500000000, A.D. 1995-Jan-23 00:00:00.0000,      61.184557,  1.429742327703817E+00, -2.175678093980237E+00,  2.506692103463388E-01,  9.258993409157097E-03,  5.036048361117532E-03,  2.150775072564252E-04,
2449745.500000000, A.D. 1995-Jan-28 00:00:00.0000,      61.184693,  1.475740992956401E+00, -2.150052568636099E+00,  2.516931846161871E-01,  9.139944963986648E-03,  5.213662925626599E-03,  1.945155363668509E-04,
2449750.500000000, A.D. 1995-Feb-02 00:00:00.0000,      61.184824,  1.521136566210459E+00, -2.123546486630978E+00,  2.526144056959078E-01,  9.017769829329057E-03,  5.388264416243121E-03,  1.739775512483434E-04,
2449755.500000000, A.D. 1995-Feb-07 00:00:00.0000,      61.184949,  1.565913612061671E+00, -2.096175010729500E+00,  2.534330131710288E-01,  8.892547170757792E-03,  5.559814221814573E-03,  1.534713858112160E-04,
2449760.500000000, A.D. 1995-Feb-12 00:00:00.0000,      61.185065,  1.610057090120624E+00, -2.067953491594812E+00,  2.541491853662002E-01,  8.764355821200647E-03,  5.728275784791001E-03,  1.330047019929861E-04,
2449765.500000000, A.D. 1995-Feb-17 00:00:00.0000,      61.185171,  1.653552353240430E+00, -2.038897457660083E+00,  2.547631384885273E-01,  8.633274237826250E-03,  5.893614545400216E-03,  1.125849910790620E-04,
2449770.500000000, A.D. 1995-Feb-22 00:00:00.0000,      61.185269,  1.696385145536813E+00, -2.009022605279361E+00,  2.552751257781188E-01,  8.499380462107917E-03,  6.055797885747036E-03,  9.221957526354911E-05,
2449775.500000000, A.D. 1995-Feb-27 00:00:00.0000,      61.185359,  1.738541600216041E+00, -1.978344789157781E+00,  2.556854366669601E-01,  8.362752082873581E-03,  6.214795074009023E-03,  7.191560941253487E-05,
